{
  "type": "FeatureCollection",
  "features": [
    {
      "type": "Feature",
      "properties": {
        "norad_id": 34726,
        "name": "COSMOS 2251 DEB",
        "group": "cosmos-2251-debris",
        "lat": -67.31660991965634,
        "lon": -62.500271979596626,
        "alt_km": 728.6798352673468,
        "timestamp": "2025-12-15T15:53:20.243186+00:00",
        "meta_object_name": "COSMOS 2251 DEB",
        "meta_object_id": "1993-036YU",
        "meta_epoch": "2025-12-14T10:37:01.536096",
        "meta_mean_motion": 14.59490893,
        "meta_eccentricity": 0.0041911,
        "meta_inclination": 74.029,
        "meta_ra_of_asc_node": 343.0756,
        "meta_arg_of_pericenter": 133.3589,
        "meta_mean_anomaly": 227.1081,
        "meta_ephemeris_type": 0,
        "meta_classification_type": "U",
        "meta_norad_cat_id": 34726,
        "meta_element_set_no": 999,
        "meta_rev_at_epoch": 88527,
        "meta_bstar": 0.0004977428,
        "meta_mean_motion_dot": 2.362e-05,
        "meta_mean_motion_ddot": 0,
        "tle_line1": "1 34726U 93036YU  25348.44237889  .00002362  00000+0  49774-3 0  9996",
        "tle_line2": "2 34726  74.0290 343.0756 0041911 133.3589 227.1081 14.59490893885275"
      },
      "geometry": {
        "type": "Point",
        "coordinates": [
          -62.500271979596626,
          -67.31660991965634
        ]
      }
    },
    {
      "type": "Feature",
      "properties": {
        "norad_id": 34728,
        "name": "COSMOS 2251 DEB",
        "group": "cosmos-2251-debris",
        "lat": -69.3045100402611,
        "lon": -163.25813941951367,
        "alt_km": 679.3508459041932,
        "timestamp": "2025-12-15T15:53:20.243195+00:00",
        "meta_object_name": "COSMOS 2251 DEB",
        "meta_object_id": "1993-036YW",
        "meta_epoch": "2025-12-14T10:51:15.531840",
        "meta_mean_motion": 14.70869952,
        "meta_eccentricity": 0.00410858,
        "meta_inclination": 74.0171,
        "meta_ra_of_asc_node": 248.4405,
        "meta_arg_of_pericenter": 45.5708,
        "meta_mean_anomaly": 314.8813,
        "meta_ephemeris_type": 0,
        "meta_classification_type": "U",
        "meta_norad_cat_id": 34728,
        "meta_element_set_no": 999,
        "meta_rev_at_epoch": 88825,
        "meta_bstar": 0.00082437634,
        "meta_mean_motion_dot": 5.08e-05,
        "meta_mean_motion_ddot": 0,
        "tle_line1": "1 34728U 93036YW  25348.45226310  .00005080  00000+0  82438-3 0  9990",
        "tle_line2": "2 34728  74.0171 248.4405 0041085  45.5708 314.8813 14.70869952888250"
      },
      "geometry": {
        "type": "Point",
        "coordinates": [
          -163.25813941951367,
          -69.3045100402611
        ]
      }
    },
    {
      "type": "Feature",
      "properties": {
        "norad_id": 34729,
        "name": "COSMOS 2251 DEB",
        "group": "cosmos-2251-debris",
        "lat": 59.039375692369326,
        "lon": 21.17874068185816,
        "alt_km": 608.5314914329956,
        "timestamp": "2025-12-15T15:53:20.243204+00:00",
        "meta_object_name": "COSMOS 2251 DEB",
        "meta_object_id": "1993-036YX",
        "meta_epoch": "2025-12-14T20:29:22.310016",
        "meta_mean_motion": 14.82870529,
        "meta_eccentricity": 0.00118328,
        "meta_inclination": 74.0181,
        "meta_ra_of_asc_node": 354.2425,
        "meta_arg_of_pericenter": 112.0974,
        "meta_mean_anomaly": 317.9434,
        "meta_ephemeris_type": 0,
        "meta_classification_type": "U",
        "meta_norad_cat_id": 34729,
        "meta_element_set_no": 999,
        "meta_rev_at_epoch": 88489,
        "meta_bstar": 0.0011227339,
        "meta_mean_motion_dot": 9.086e-05,
        "meta_mean_motion_ddot": 0,
        "tle_line1": "1 34729U 93036YX  25348.85373044  .00009086  00000+0  11227-2 0  9999",
        "tle_line2": "2 34729  74.0181 354.2425 0011832 112.0974 317.9434 14.82870529884896"
      },
      "geometry": {
        "type": "Point",
        "coordinates": [
          21.17874068185816,
          59.039375692369326
        ]
      }
    },
    {
      "type": "Feature",
      "properties": {
        "norad_id": 34732,
        "name": "COSMOS 2251 DEB",
        "group": "cosmos-2251-debris",
        "lat": -73.00485601649594,
        "lon": 18.33792094536959,
        "alt_km": 718.6652402997925,
        "timestamp": "2025-12-15T15:53:20.243213+00:00",
        "meta_object_name": "COSMOS 2251 DEB",
        "meta_object_id": "1993-036ZA",
        "meta_epoch": "2025-12-14T17:38:04.490016",
        "meta_mean_motion": 14.47303428,
        "meta_eccentricity": 0.00403825,
        "meta_inclination": 74.0455,
        "meta_ra_of_asc_node": 89.458,
        "meta_arg_of_pericenter": 240.1287,
        "meta_mean_anomaly": 246.1454,
        "meta_ephemeris_type": 0,
        "meta_classification_type": "U",
        "meta_norad_cat_id": 34732,
        "meta_element_set_no": 999,
        "meta_rev_at_epoch": 88172,
        "meta_bstar": 0.00018149984,
        "meta_mean_motion_dot": 6.43e-06,
        "meta_mean_motion_ddot": 0,
        "tle_line1": "1 34732U 93036ZA  25348.73477419  .00000643  00000+0  18150-3 0  9994",
        "tle_line2": "2 34732  74.0455  89.4580 0040382 240.1287 246.1454 14.47303428881729"
      },
      "geometry": {
        "type": "Point",
        "coordinates": [
          18.33792094536959,
          -73.00485601649594
        ]
      }
    },
    {
      "type": "Feature",
      "properties": {
        "norad_id": 34736,
        "name": "COSMOS 2251 DEB",
        "group": "cosmos-2251-debris",
        "lat": 30.171480002179067,
        "lon": 39.41619699179242,
        "alt_km": 407.1874700244598,
        "timestamp": "2025-12-15T15:53:20.243222+00:00",
        "meta_object_name": "COSMOS 2251 DEB",
        "meta_object_id": "1993-036ZE",
        "meta_epoch": "2025-12-14T13:24:53.506368",
        "meta_mean_motion": 15.49326289,
        "meta_eccentricity": 0.00170127,
        "meta_inclination": 74.0002,
        "meta_ra_of_asc_node": 32.2366,
        "meta_arg_of_pericenter": 344.441,
        "meta_mean_anomaly": 15.6277,
        "meta_ephemeris_type": 0,
        "meta_classification_type": "U",
        "meta_norad_cat_id": 34736,
        "meta_element_set_no": 999,
        "meta_rev_at_epoch": 88476,
        "meta_bstar": 0.0064959808,
        "meta_mean_motion_dot": 0.00374954,
        "meta_mean_motion_ddot": 0,
        "tle_line1": "1 34736U 93036ZE  25348.55895262  .00374954  00000+0  64960-2 0  9996",
        "tle_line2": "2 34736  74.0002  32.2366 0017012 344.4410  15.6277 15.49326289884761"
      },
      "geometry": {
        "type": "Point",
        "coordinates": [
          39.41619699179242,
          30.171480002179067
        ]
      }
    },
    {
      "type": "Feature",
      "properties": {
        "norad_id": 34738,
        "name": "COSMOS 2251 DEB",
        "group": "cosmos-2251-debris",
        "lat": -58.499335817504054,
        "lon": 109.91549517527275,
        "alt_km": 711.7376978849079,
        "timestamp": "2025-12-15T15:53:20.243231+00:00",
        "meta_object_name": "COSMOS 2251 DEB",
        "meta_object_id": "1993-036ZG",
        "meta_epoch": "2025-12-14T14:09:58.133952",
        "meta_mean_motion": 14.46307063,
        "meta_eccentricity": 0.00474263,
        "meta_inclination": 74.0147,
        "meta_ra_of_asc_node": 139.8074,
        "meta_arg_of_pericenter": 285.7247,
        "meta_mean_anomaly": 193.5007,
        "meta_ephemeris_type": 0,
        "meta_classification_type": "U",
        "meta_norad_cat_id": 34738,
        "meta_element_set_no": 999,
        "meta_rev_at_epoch": 87885,
        "meta_bstar": 0.00040310088,
        "meta_mean_motion_dot": 1.437e-05,
        "meta_mean_motion_ddot": 0,
        "tle_line1": "1 34738U 93036ZG  25348.59025618  .00001437  00000+0  40310-3 0  9999",
        "tle_line2": "2 34738  74.0147 139.8074 0047426 285.7247 193.5007 14.46307063878855"
      },
      "geometry": {
        "type": "Point",
        "coordinates": [
          109.91549517527275,
          -58.499335817504054
        ]
      }
    },
    {
      "type": "Feature",
      "properties": {
        "norad_id": 34750,
        "name": "COSMOS 2251 DEB",
        "group": "cosmos-2251-debris",
        "lat": -67.32435750117578,
        "lon": 59.17904710882913,
        "alt_km": 702.8022646796171,
        "timestamp": "2025-12-15T15:53:20.243240+00:00",
        "meta_object_name": "COSMOS 2251 DEB",
        "meta_object_id": "1993-036ZU",
        "meta_epoch": "2025-12-14T20:43:34.718592",
        "meta_mean_motion": 14.61347021,
        "meta_eccentricity": 0.00387333,
        "meta_inclination": 74.1079,
        "meta_ra_of_asc_node": 197.7077,
        "meta_arg_of_pericenter": 150.0972,
        "meta_mean_anomaly": 224.2981,
        "meta_ephemeris_type": 0,
        "meta_classification_type": "U",
        "meta_norad_cat_id": 34750,
        "meta_element_set_no": 999,
        "meta_rev_at_epoch": 88262,
        "meta_bstar": 0.00071877601,
        "meta_mean_motion_dot": 3.562e-05,
        "meta_mean_motion_ddot": 0,
        "tle_line1": "1 34750U 93036ZU  25348.86359628  .00003562  00000+0  71878-3 0  9998",
        "tle_line2": "2 34750  74.1079 197.7077 0038733 150.0972 224.2981 14.61347021882628"
      },
      "geometry": {
        "type": "Point",
        "coordinates": [
          59.17904710882913,
          -67.32435750117578
        ]
      }
    }
  ]
}